[{"OBJECT_NAME":"YAOGAN-39 03B","OBJECT_ID":"2023-152C","EPOCH":"2026-03-09T19:01:55.564608","MEAN_MOTION":15.17016078,"ECCENTRICITY":0.00191509,"INCLINATION":34.9895,"RA_OF_ASC_NODE":196.0494,"ARG_OF_PERICENTER":57.0378,"MEAN_ANOMALY":303.2174,"EPHEMERIS_TYPE":0,"CLASSIFICATION_TYPE":"U","NORAD_CAT_ID":57988,"ELEMENT_SET_NO":999,"REV_AT_EPOCH":13508,"BSTAR":0.00044094259,"MEAN_MOTION_DOT":8.936e-5,"MEAN_MOTION_DDOT":0},{"OBJECT_NAME":"LEGION 4","OBJECT_ID":"2024-146B","EPOCH":"2026-03-09T20:57:25.515072","MEAN_MOTION":15.16207109,"ECCENTRICITY":0.00094512,"INCLINATION":45.0024,"RA_OF_ASC_NODE":294.7765,"ARG_OF_PERICENTER":105.8895,"MEAN_ANOMALY":254.3026,"EPHEMERIS_TYPE":0,"CLASSIFICATION_TYPE":"U","NORAD_CAT_ID":60453,"ELEMENT_SET_NO":999,"REV_AT_EPOCH":8580,"BSTAR":0.00030530233,"MEAN_MOTION_DOT":5.743e-5,"MEAN_MOTION_DDOT":0}]
